*******************************************************************************
JPL/HORIZONS             120347 Salacia (2004 SB60)        2013-Dec-01 19:34:36
Rec #:120347 (+COV)   Soln.date: 2013-Aug-07_01:51:30    # obs: 100 (1982-2010)
 
FK5/J2000.0 helio. ecliptic osc. elements (au, days, deg., period=Julian yrs): 
 
  EPOCH=  2453270.5 ! 2004-Sep-22.00 (CT)          Residual RMS= .32676        
   EC= .1085537768896997   QR= 37.32263508951493   TP= 2423878.5171499611      
   OM= 280.1558223067631   W=  307.7908161470244   IN= 23.94462075831737       
   A= 41.86751160299317    MA= 106.9343503709963   ADIST= 46.4123881164714     
   PER= 270.90932          N= .003638215           ANGMOM= .110648613          
   DAN= 38.79361           DDN= 44.32246           L= 230.4684794              
   B= -18.7068953          MOID= 36.36569977       TP= 1924-Apr-03.0171499611  
 
Asteroid physical parameters (km, seconds, rotational period in hours):        
   GM= n.a.                RAD= n.a.               ROTPER= 6.09                
   H= 4.2                  G= .150                 B-V= n.a.                   
                           ALBEDO= n.a.            STYP= n.a.                  
 
ASTEROID comments: 
1: soln ref.= JPL#10, OCC=3
2: source=ORB
*******************************************************************************
 

 

*******************************************************************************
Ephemeris / WWW_USER Sun Dec  1 19:34:36 2013 Pasadena, USA      / Horizons    
*******************************************************************************
Target body name: 120347 Salacia (2004 SB60)      {source: JPL#10}
Center body name: Earth (399)                     {source: DE-0431LE-0431}
Center-site name: San Pedro Martir
*******************************************************************************
Start time      : A.D. 2013-Jan-01 00:00:00.0000 UT      
Stop  time      : A.D. 2014-Dec-31 00:00:00.0000 UT      
Step-size       : 1440 minutes
*******************************************************************************
Target pole/equ : No model available
Target radii    : (unavailable)                                                
Center geodetic : 244.536700,31.0434585,2.8281109 {E-lon(deg),Lat(deg),Alt(km)}
Center cylindric: 244.536700,5471.93108,3271.4810 {E-lon(deg),Dxy(km),Dz(km)}
Center pole/equ : High-precision EOP model        {East-longitude +}
Center radii    : 6378.1 x 6378.1 x 6356.8 km     {Equator, meridian, pole}    
Target primary  : Sun
Vis. interferer : MOON (R_eq= 1737.400) km        {source: DE-0431LE-0431}
Rel. light bend : Sun, EARTH                      {source: DE-0431LE-0431}
Rel. lght bnd GM: 1.3271E+11, 3.9860E+05 km^3/s^2                              
Small-body perts: Yes                             {source: SB431-BIG16}
Atmos refraction: NO (AIRLESS)
RA format       : DEG
Time format     : BOTH
EOP file        : eop.131128.p140219                                           
EOP coverage    : DATA-BASED 1962-JAN-20 TO 2013-NOV-28. PREDICTS-> 2014-FEB-18
Units conversion: 1 au= 149597870.700 km, c= 299792.458 km/s, 1 day= 86400.0 s 
Table cut-offs 1: Elevation (-90.0deg=NO ),Airmass (>38.000=NO), Daylight (NO )
Table cut-offs 2: Solar Elongation (  0.0,180.0=NO ),Local Hour Angle( 0.0=NO )
*******************************************************************************
Initial FK5/J2000.0 heliocentric ecliptic osculating elements (au, days, deg.):
  EPOCH=  2453270.5 ! 2004-Sep-22.00 (CT)          Residual RMS= .32676        
   EC= .1085537768896997   QR= 37.32263508951493   TP= 2423878.5171499611      
   OM= 280.1558223067631   W=  307.7908161470244   IN= 23.94462075831737       
Asteroid physical parameters (km, seconds, rotational period in hours):        
   GM= n.a.                RAD= n.a.               ROTPER= 6.09                
   H= 4.2                  G= .150                 B-V= n.a.                   
                           ALBEDO= n.a.            STYP= n.a.                  
************************************************************************************************************
 Date__(UT)__HR:MN Date_________JDUT     R.A._(J2000.0)_DEC. dRA*cosD d(DEC)/dt            delta      deldot
************************************************************************************************************
$$SOE
 2013-Dec-24 00:00 2456650.500000000 *   345.69550  19.21031 1.322379  -0.76313 44.5426760753122  27.8106353
 2013-Dec-25 00:00 2456651.500000000 *   345.70532  19.20530 1.372990  -0.73559 44.5587533274630  27.7555305
 2013-Dec-26 00:00 2456652.500000000 *   345.71550  19.20048 1.423321  -0.70777 44.5747926840641  27.6920658
 2013-Dec-27 00:00 2456653.500000000 *   345.72604  19.19584 1.473359  -0.67965 44.5907892847499  27.6201506
 2013-Dec-28 00:00 2456654.500000000 *   345.73692  19.19139 1.523085  -0.65125 44.6067382128683  27.5396769
 2013-Dec-29 00:00 2456655.500000000 *   345.74816  19.18713 1.572481  -0.62258 44.6226344860033  27.4505222
 2013-Dec-30 00:00 2456656.500000000 *   345.75974  19.18307 1.621520  -0.59363 44.6384730502626  27.3525605
 2013-Dec-31 00:00 2456657.500000000 *   345.77166  19.17920 1.670168  -0.56443 44.6542487840683  27.2456843
 2014-Jan-01 00:00 2456658.500000000 *m  345.78393  19.17553 1.718389  -0.53498 44.6699565174353  27.1298353
 2014-Jan-02 00:00 2456659.500000000 *m  345.79654  19.17206 1.766142  -0.50530 44.6855910693823  27.0050341
 2014-Jan-03 00:00 2456660.500000000 *m  345.80948  19.16879 1.813385  -0.47542 44.7011472990588  26.8713960
 2014-Jan-04 00:00 2456661.500000000 *m  345.82276  19.16572 1.860087  -0.44536 44.7166201588405  26.7291213
 2014-Jan-05 00:00 2456662.500000000 *m  345.83636  19.16285 1.906224  -0.41514 44.7320047354487  26.5784649
 2014-Jan-06 00:00 2456663.500000000 *m  345.85028  19.16018 1.951779  -0.38479 44.7472962702887  26.4196978
 2014-Jan-07 00:00 2456664.500000000 *m  345.86452  19.15772 1.996746  -0.35431 44.7624901590215  26.2530753
 2014-Jan-08 00:00 2456665.500000000 *m  345.87908  19.15547 2.041121  -0.32373 44.7775819369831  26.0788206
 2014-Jan-09 00:00 2456666.500000000 *m  345.89395  19.15342 2.084905  -0.29305 44.7925672586841  25.8971197
 2014-Jan-10 00:00 2456667.500000000 *m  345.90912  19.15157 2.128098  -0.26228 44.8074418775287  25.7081264
 2014-Jan-11 00:00 2456668.500000000 *m  345.92459  19.14994 2.170701  -0.23144 44.8222016287520  25.5119680
 2014-Jan-12 00:00 2456669.500000000 *m  345.94037  19.14851 2.212713  -0.20051 44.8368424161325  25.3087517
 2014-Jan-13 00:00 2456670.500000000 *m  345.95643  19.14729 2.254136  -0.16952 44.8513602017419  25.0985692
 2014-Jan-14 00:00 2456671.500000000 *m  345.97279  19.14628 2.294968  -0.13847 44.8657509976188  24.8814986
 2014-Jan-15 00:00 2456672.500000000 *   345.98943  19.14547 2.335208  -0.10736 44.8800108584026  24.6576058
 2014-Jan-16 00:00 2456673.500000000 *   346.00635  19.14488 2.374856  -0.07620 44.8941358743361  24.4269447
 2014-Jan-17 00:00 2456674.500000000 *   346.02355  19.14449 2.413908  -0.04499 44.9081221644388  24.1895577
 2014-Jan-18 00:00 2456675.500000000 *   346.04101  19.14431 2.452363  -0.01375 44.9219658699395  23.9454760
 2014-Jan-19 00:00 2456676.500000000 *   346.05875  19.14435 2.490216  0.017540 44.9356631481721  23.6947207
 2014-Jan-20 00:00 2456677.500000000 *   346.07675  19.14459 2.527464  0.048859 44.9492101670705  23.4373043
 2014-Jan-21 00:00 2456678.500000000 *   346.09501  19.14505 2.564099  0.080205 44.9626031002051  23.1732305
 2014-Jan-22 00:00 2456679.500000000 *   346.11353  19.14571 2.600115  0.111575 44.9758381220706  22.9024952
 2014-Jan-23 00:00 2456680.500000000 *   346.13229  19.14659 2.635503  0.142964 44.9889114032141  22.6250854
 2014-Jan-24 00:00 2456681.500000000 *   346.15130  19.14767 2.670253  0.174366 45.0018191048994  22.3409785
 2014-Jan-25 00:00 2456682.500000000 *   346.17055  19.14897 2.704351  0.205777 45.0145573735005  22.0501425
 2014-Jan-26 00:00 2456683.500000000 *   346.19004  19.15048 2.737781  0.237189 45.0271223358046  21.7525393
 2014-Jan-27 00:00 2456684.500000000 *   346.20976  19.15220 2.770522  0.268595 45.0395100978618  21.4481340
 2014-Jan-28 00:00 2456685.500000000 *   346.22970  19.15413 2.802547  0.299984 45.0517167515459  21.1369129
 2014-Jan-29 00:00 2456686.500000000 *   346.24987  19.15627 2.833827  0.331341 45.0637383935578  20.8189078
 2014-Jan-30 00:00 2456687.500000000 *m  346.27026  19.15862 2.864328  0.362648 45.0755711596762  20.4942229
 2014-Jan-31 00:00 2456688.500000000 *m  346.29085  19.16118 2.894020  0.393882 45.0872112717943  20.1630503
 2014-Feb-01 00:00 2456689.500000000 *m  346.31165  19.16395 2.922876  0.425021 45.0986550883717  19.8256647
 2014-Feb-02 00:00 2456690.500000000 *m  346.33264  19.16692 2.950883  0.456043 45.1098991448981  19.4823952
 2014-Feb-03 00:00 2456691.500000000 *m  346.35383  19.17011 2.978032  0.486930 45.1209401737284  19.1335844
 2014-Feb-04 00:00 2456692.500000000 *m  346.37521  19.17350 3.004328  0.517668 45.1317751010442  18.7795530
 2014-Feb-05 00:00 2456693.500000000 *m  346.39677  19.17710 3.029776  0.548245 45.1424010270448  18.4205780
 2014-Feb-06 00:00 2456694.500000000 *m  346.41850  19.18090 3.054387  0.578655 45.1528151989665  18.0568889
 2014-Feb-07 00:00 2456695.500000000 *m  346.44039  19.18491 3.078170  0.608892 45.1630149849621  17.6886736
 2014-Feb-08 00:00 2456696.500000000 *m  346.46246  19.18911 3.101132  0.638952 45.1729978530741  17.3160891
 2014-Feb-09 00:00 2456697.500000000 *m  346.48467  19.19352 3.123283  0.668829 45.1827613561526  16.9392707
 2014-Feb-10 00:00 2456698.500000000 *m  346.50704  19.19813 3.144627  0.698521 45.1923031216323  16.5583395
 2014-Feb-11 00:00 2456699.500000000 *m  346.52956  19.20294 3.165171  0.728023 45.2016208444111  16.1734056
 2014-Feb-12 00:00 2456700.500000000 *m  346.55221  19.20795 3.184921  0.757331 45.2107122811606  15.7845701
